[{"OBJECT_NAME":"ASNARO","OBJECT_ID":"2014-070A","EPOCH":"2026-03-09T22:08:57.436800","MEAN_MOTION":15.19795737,"ECCENTRICITY":0.00075314,"INCLINATION":97.3509,"RA_OF_ASC_NODE":147.6802,"ARG_OF_PERICENTER":140.927,"MEAN_ANOMALY":219.2511,"EPHEMERIS_TYPE":0,"CLASSIFICATION_TYPE":"U","NORAD_CAT_ID":40298,"ELEMENT_SET_NO":999,"REV_AT_EPOCH":62893,"BSTAR":0.00030880192,"MEAN_MOTION_DOT":6.55e-5,"MEAN_MOTION_DDOT":0},{"OBJECT_NAME":"MALLIGYONG-1","OBJECT_ID":"2023-179A","EPOCH":"2026-03-09T23:34:09.992640","MEAN_MOTION":15.22003697,"ECCENTRICITY":0.00093214,"INCLINATION":97.316,"RA_OF_ASC_NODE":313.2885,"ARG_OF_PERICENTER":28.0346,"MEAN_ANOMALY":332.1391,"EPHEMERIS_TYPE":0,"CLASSIFICATION_TYPE":"U","NORAD_CAT_ID":58400,"ELEMENT_SET_NO":999,"REV_AT_EPOCH":12766,"BSTAR":0.00019369443,"MEAN_MOTION_DOT":4.359e-5,"MEAN_MOTION_DDOT":0}]
